ORBCOMM FM103           
1 40091U 14040F   25202.71949922  .00000301  00000+0  10109-3 0  9994
2 40091  47.0037 214.7172 0000781  50.8790 309.2165 14.58204559569140
ORBCOMM FM114           
1 41179U 15081A   25202.80859413  .00000410  00000+0  12433-3 0  9996
2 41179  47.0026 123.3235 0001494 161.7439 198.3500 14.58250585509521
ORBCOMM FM119           
1 41180U 15081B   25203.20930700  .00000464  00000+0  13625-3 0  9995
2 41180  47.0015  30.7525 0001488 223.9085 136.1682 14.58183032510834
ORBCOMM FM105           
1 41181U 15081C   25202.85758163  .00000117  00000+0  77645-4 0  9995
2 41181  47.0023  40.7307 0001354 124.0274 236.0734 14.45240293505769
ORBCOMM FM110           
1 41182U 15081D   25202.79881876  .00000580  00000+0  16161-3 0  9996
2 41182  47.0017 122.8894 0001862 329.4656  30.6121 14.57985338509395
ORBCOMM FM118           
1 41183U 15081E   25203.44925091  .00000545  00000+0  15338-3 0  9994
2 41183  47.0040 120.0796 0003541 312.9645  47.0943 14.58232820509671
ORBCOMM FM112           
1 41184U 15081F   25202.90957044  .00000550  00000+0  15429-3 0  9995
2 41184  46.9997  31.2931 0001355 163.2186 196.8745 14.58278979510785
ORBCOMM FM113           
1 41185U 15081G   25202.88608705  .00000522  00000+0  14834-3 0  9998
2 41185  47.0018  31.7306 0001277 184.0325 176.0550 14.58271542510718
